X;Y;Name;DIRECCI__N_COMERCIAL;HORARIO_DE_ATENCI__N;Latitud;Longitud;N;N COMERCIAL;;;;;;
-769.303;-1.204.306;TIENDAS TAMBO S.A.C;AV. JAVIER PRADO NRO. 8703 URB. LOS PORTALES DE JAVIER PRADO (MZ J1 LOTE 50);07:00 am - 10:30 pm;-1.204.306;-769.303;07:00 am - 10:30 pm;AV. JAVIER PRADO NRO. 8703 URB. LOS PORTALES DE JAVIER PRADO (MZ J1 LOTE 50);;;;;;
-769.584;-1.206.751;TIENDAS TAMBO S.A.C;AV. CONSTRUCTORES NRO 107 (ESQUINA AV. LA MOLINA) LIMA-LIMA-LA MOLINA;07:00 am - 10:30 pm;-1.206.751;-769.584;07:00 am - 10:30 pm;AV. CONSTRUCTORES NRO 107 (ESQUINA AV. LA MOLINA) LIMA-LIMA-LA MOLINA;;;;;;
-7.703.487;-1.209.442;TIENDAS TAMBO S.A.C;AV. CAMINO REAL NRO. 101 LIMA-LIMA-SAN ISIDRO;07:00 am - 10:30 pm;-1.209.442;-7.703.487;07:00 am - 10:30 pm;AV. CAMINO REAL NRO. 101 LIMA-LIMA-SAN ISIDRO;;;;;;
-7.694.306;-1.210.134;TIENDAS TAMBO S.A.C;AV. A MZA. B LOTE. 15 URB. VALLE DE LA MOLINA LIMA - LIMA - LA MOLINA;07:00 am - 10:30 pm;-1.210.134;-7.694.306;07:00 am - 10:30 pm;AV. A MZA. B LOTE. 15 URB. VALLE DE LA MOLINA LIMA - LIMA - LA MOLINA;;;;;;
-770.033;-1.208.889;TIENDAS TAMBO S.A.C;AV.AVIACIÓN N° 2415, MZ. I3, LOTE 08 SAN BORJA;07:00 am - 10:30 pm;-1.208.889;-770.033;07:00 am - 10:30 pm;AV.AVIACIÓN N° 2415, MZ. I3, LOTE 08 SAN BORJA;;;;;;
-7.702.682;-1.209.219;OXXO MERINO;AV. RIVERA NAVARRETE 495, SAN ISIDRO;07:00 am - 10:00 pm;-1.209.219;-7.702.682;07:00 am - 10:00 pm;AV. RIVERA NAVARRETE 495, SAN ISIDRO;;;;;;
-770.335;-1.208.957;TIENDAS TAMBO S.A.C;AV. AREQUIPA N°2589 LC 102, URB. DEL FUNDO LOBATON;07:00 am - 10:30 pm;-1.208.957;-770.335;07:00 am - 10:30 pm;AV. AREQUIPA N°2589 LC 102, URB. DEL FUNDO LOBATON;;;;;;
-7.702.659;-1.209.308;TIENDAS TAMBO S.A.C;AV. RICARDO RIVERA NAVARRETE 595 LOCAL COMERCIAL 1 - SAN ISIDRO;07:00 am - 10:30 pm;-1.209.308;-7.702.659;07:00 am - 10:30 pm;AV. RICARDO RIVERA NAVARRETE 595 LOCAL COMERCIAL 1 - SAN ISIDRO;;;;;;
-7.706.692;-1.208.269;TIENDAS TAMBO S.A.C;AV. SUCRE NRO. 1183 LIMA-LIMA-PUEBLO LIBRE;07:00 am - 10:30 pm;-1.208.269;-7.706.692;07:00 am - 10:30 pm;AV. SUCRE NRO. 1183 LIMA-LIMA-PUEBLO LIBRE;;;;;;
-771.001;-1.207.443;TIENDAS TAMBO S.A.C;AV. LA MARINA NRO. 3289 LIMA-LIMA-SAN MIGUEL;07:00 am - 10:30 pm;-1.207.443;-771.001;07:00 am - 10:30 pm;AV. LA MARINA NRO. 3289 LIMA-LIMA-SAN MIGUEL;;;;;;
-7.703.923;-1.204.849;TIENDAS TAMBO S.A.C;AV. NICOLAS DE PIEROLA NRO. 495 LIMA-LIMA-LIMA;07:00 am - 10:30 pm;-1.204.849;-7.703.923;07:00 am - 10:30 pm;AV. NICOLAS DE PIEROLA NRO. 495 LIMA-LIMA-LIMA;;;;;;
-7.705.874;-1.208.965;TIENDAS TAMBO S.A.C;AV. PERSHING N° 590, MAGDALENA DEL MAR;07:00 am - 10:30 pm;-1.208.965;-7.705.874;07:00 am - 10:30 pm;AV. PERSHING N° 590, MAGDALENA DEL MAR;;;;;;
-7.696.771;-1.208.202;TIENDAS TAMBO S.A.C;AV. CIRCUNVALACIÓN NRO S/N URB CLUB GOLF LOS INCAS LIMA-LIMA-SANTIAGO DE SURCO;07:00 am - 10:30 pm;-1.208.202;-7.696.771;07:00 am - 10:30 pm;AV. CIRCUNVALACIÓN NRO S/N URB CLUB GOLF LOS INCAS LIMA-LIMA-SANTIAGO DE SURCO;;;;;;
-7.700.556;-1.208.866;TIENDAS TAMBO S.A.C;JR. UCELLO 102 URB. CORPAC 1ERA ZONA DISTRITO DE SAN BORJA;07:00 am - 10:30 pm;-1.208.866;-7.700.556;07:00 am - 10:30 pm;JR. UCELLO 102 URB. CORPAC 1ERA ZONA DISTRITO DE SAN BORJA;;;;;;
-7.705.494;-1.209.217;TIENDAS TAMBO S.A.C;AV. PERSHING NRO 479 INT. 2 URBANIZACIÓN COUNTRY CLUB LIMA-LIMA-MAGDALENA DEL MAR;07:00 am - 10:30 pm;-1.209.217;-7.705.494;07:00 am - 10:30 pm;AV. PERSHING NRO 479 INT. 2 URBANIZACIÓN COUNTRY CLUB LIMA-LIMA-MAGDALENA DEL MAR;;;;;;
-7.705.249;-1.209.321;TIENDAS TAMBO S.A.C;AV. FAUSTINO SÁNCHEZ CARRIÓN N° 302 LOCAL NRO.3, DISTRITO DE SAN ISIDRO;07:00 am - 10:30 pm;-1.209.321;-7.705.249;07:00 am - 10:30 pm;AV. FAUSTINO SÁNCHEZ CARRIÓN N° 302 LOCAL NRO.3, DISTRITO DE SAN ISIDRO;;;;;;
-7.703.841;-1.205.585;TIENDAS TAMBO S.A.C;AV. INCA GARCILAZO DE LA VEGA 1298;07:00 am - 10:30 pm;-1.205.585;-7.703.841;07:00 am - 10:30 pm;AV. INCA GARCILAZO DE LA VEGA 1298;;;;;;
-7.707.755;-1.206.948;TIENDAS TAMBO S.A.C;AV. UNIVERSITARIA NRO. 1833 LIMA - LIMA - PUEBLO LIBRE (MAGDALENA VIEJA);07:00 am - 10:30 pm;-1.206.948;-7.707.755;07:00 am - 10:30 pm;AV. UNIVERSITARIA NRO. 1833 LIMA - LIMA - PUEBLO LIBRE (MAGDALENA VIEJA);;;;;;
-76.955;-1.207.339;TIENDAS TAMBO S.A.C;AV. JUAN PASCAL PRINGLES NRO 410 INT 134 LIMA-LIMA-LA MOLINA (REF. CC LA FONTANA);07:00 am - 10:30 pm;-1.207.339;-76.955;07:00 am - 10:30 pm;AV. JUAN PASCAL PRINGLES NRO 410 INT 134 LIMA-LIMA-LA MOLINA (REF. CC LA FONTANA);;;;;;
-769.492;-1.210.267;TIENDAS TAMBO S.A.C;AV. ALAMEDA DEL CORREGIDOR NRO. 1684 URB. LAS VIÑAS (PRIMER NIVEL) LIMA-LIMA-LA MOLINA;07:00 am - 10:30 pm;-1.210.267;-769.492;07:00 am - 10:30 pm;AV. ALAMEDA DEL CORREGIDOR NRO. 1684 URB. LAS VIÑAS (PRIMER NIVEL) LIMA-LIMA-LA MOLINA;;;;;;
-7.693.868;-1.211.074;MINIMARKET GRAUINO;JR. CHAN CHAN 105 MZ. C LT 1 URB. PORTADA DEL SOL DE LA MOLINA;07:30 am - 10:00 pm;-1.211.074;-7.693.868;07:30 am - 10:00 pm;JR. CHAN CHAN 105 MZ. C LT 1 URB. PORTADA DEL SOL DE LA MOLINA;;;;;;
-7.694.258;-1.206.044;TIENDAS TAMBO S.A.C;AV. HUAROCHIRI NRO. 405 URB. COVIMA LIMA - LIMA - LA MOLINA;07:00 am - 10:30 pm;-1.206.044;-7.694.258;07:00 am - 10:30 pm;AV. HUAROCHIRI NRO. 405 URB. COVIMA LIMA - LIMA - LA MOLINA;;;;;;
-769.492;-1.210.267;TIENDAS TAMBO S.A.C;AV. ALAMEDA DEL CORREGIDOR NRO. 1684 URB. LAS VIÑAS (PRIMER NIVEL) LIMA-LIMA-LA MOLINA;07:00 am - 10:30 pm;-1.210.267;-769.492;07:00 am - 10:30 pm;AV. ALAMEDA DEL CORREGIDOR NRO. 1684 URB. LAS VIÑAS (PRIMER NIVEL) LIMA-LIMA-LA MOLINA;;;;;;
-7.703.243;-1.209.037;TIENDAS TAMBO S.A.C;AV. PETIT THOUARS 2699 - LINCE;07:00 am - 10:30 pm;-1.209.037;-7.703.243;07:00 am - 10:30 pm;AV. PETIT THOUARS 2699 - LINCE;;;;;;
-7.696.771;-1.208.202;TIENDAS TAMBO S.A.C;AV. CIRCUNVALACIÓN NRO S/N URB CLUB GOLF LOS INCAS LIMA-LIMA-SANTIAGO DE SURCO;07:00 am - 10:30 pm;-1.208.202;-7.696.771;07:00 am - 10:30 pm;AV. CIRCUNVALACIÓN NRO S/N URB CLUB GOLF LOS INCAS LIMA-LIMA-SANTIAGO DE SURCO;;;;;;
-771.001;-1.207.443;TIENDAS TAMBO S.A.C;AV. LA MARINA NRO. 3289 LIMA-LIMA-SAN MIGUEL;07:00 am - 10:30 pm;-1.207.443;-771.001;07:00 am - 10:30 pm;AV. LA MARINA NRO. 3289 LIMA-LIMA-SAN MIGUEL;;;;;;
-7.693.836;-1.206.689;TIENDAS TAMBO S.A.C;AV. MELGAREJO NRO. 596 URB. SANTA PATRICIA 1 ETAPA (TIENDA 1 PRIMER PISO);07:00 am - 10:30 pm;-1.206.689;-7.693.836;07:00 am - 10:30 pm;AV. MELGAREJO NRO. 596 URB. SANTA PATRICIA 1 ETAPA (TIENDA 1 PRIMER PISO);;;;;;
-7.697.308;-1.208.533;TIENDAS TAMBO S.A.C;AV. MANUEL OLGUIN NRO. 205 URB. EX PARCELACION SEMIRUSTICA LOS GRANADOS LIMA-LIMA-SANTIAGO DE SURCO;07:00 am - 10:30 pm;-1.208.533;-7.697.308;07:00 am - 10:30 pm;AV. MANUEL OLGUIN NRO. 205 URB. EX PARCELACION SEMIRUSTICA LOS GRANADOS LIMA-LIMA-SANTIAGO DE SURCO;;;;;;
-7.694.593;-1.206.237;TIENDAS TAMBO S.A.C;AV.LOS CONSTRUCTORES NRO.REF URB.STA PATRICIA III ETAPA(AV CONSTRUCTORES 1181-A) LIMA-LIMA-LA MOLINA;07:00 am - 10:30 pm;-1.206.237;-7.694.593;07:00 am - 10:30 pm;AV.LOS CONSTRUCTORES NRO.REF URB.STA PATRICIA III ETAPA(AV CONSTRUCTORES 1181-A) LIMA-LIMA-LA MOLINA;;;;;;
-7.703.262;-1.202.739;TIENDAS TAMBO S.A.C;AV. ALCAZAR NRO. 778 LIMA-LIMA-RIMAC;07:00 am - 10:30 pm;-1.202.739;-7.703.262;07:00 am - 10:30 pm;AV. ALCAZAR NRO. 778 LIMA-LIMA-RIMAC;;;;;;
-7.702.857;-120.259;TIENDAS TAMBO S.A.C;JR. BARRERA Y AGUILAR NRO. 107 URB. CIUDAD Y CAMPO (101 - 103) LIMA - LIMA - RIMAC;07:00 am - 10:30 pm;-120.259;-7.702.857;07:00 am - 10:30 pm;JR. BARRERA Y AGUILAR NRO. 107 URB. CIUDAD Y CAMPO (101 - 103) LIMA - LIMA - RIMAC;;;;;;
-7.700.556;-1.208.866;TIENDAS TAMBO S.A.C;JR. UCELLO 102 URB. CORPAC 1ERA ZONA DISTRITO DE SAN BORJA;07:00 am - 10:30 pm;-1.208.866;-7.700.556;07:00 am - 10:30 pm;JR. UCELLO 102 URB. CORPAC 1ERA ZONA DISTRITO DE SAN BORJA;;;;;;
-7.707.947;-1.207.436;TIENDAS TAMBO S.A.C;AV. UNIVERSITARIA MZA. D-6 LOTE. 1 URB. PANDO OCTAVA ETAPA (LOCAL 2)LIMA-LIMA-SAN MIGUEL;07:00 am - 10:30 pm;-1.207.436;-7.707.947;07:00 am - 10:30 pm;AV. UNIVERSITARIA MZA. D-6 LOTE. 1 URB. PANDO OCTAVA ETAPA (LOCAL 2)LIMA-LIMA-SAN MIGUEL;;;;;;
-7.703.546;-1.208.613;TIENDAS TAMBO S.A.C;AV. ARENALES NRO 2140 LIMA-LIMA-LIMA;07:00 am - 10:30 pm;-1.208.613;-7.703.546;07:00 am - 10:30 pm;AV. ARENALES NRO 2140 LIMA-LIMA-LIMA;;;;;;
-7.697.308;-1.208.533;TIENDAS TAMBO S.A.C;AV. MANUEL OLGUIN NRO. 205 URB. EX PARCELACION SEMIRUSTICA LOS GRANADOS LIMA-LIMA-SANTIAGO DE SURCO;07:00 am - 10:30 pm;-1.208.533;-7.697.308;07:00 am - 10:30 pm;AV. MANUEL OLGUIN NRO. 205 URB. EX PARCELACION SEMIRUSTICA LOS GRANADOS LIMA-LIMA-SANTIAGO DE SURCO;;;;;;
-7.698.759;-1.195.931;TIENDAS TAMBO S.A.C;PROGRAMA CIUDAD MARISCAL CÁCERES MZ A LTE 35 SECTOR 1 PRIMERA ETAPA LIMA-LIMA-SAN JUAN DE LURIGANCHO;07:00 am - 10:30 pm;-1.195.931;-7.698.759;07:00 am - 10:30 pm;PROGRAMA CIUDAD MARISCAL CÁCERES MZ A LTE 35 SECTOR 1 PRIMERA ETAPA LIMA-LIMA-SAN JUAN DE LURIGANCHO;;;;;;
-7.692.803;-1.208.278;TIENDAS TAMBO S.A.C;AV. LA MOLINA 2832 A15 MZ D LOTE 02 EL SAUCE DE LA RINCONADA;07:00 am - 10:30 pm;-1.208.278;-7.692.803;07:00 am - 10:30 pm;AV. LA MOLINA 2832 A15 MZ D LOTE 02 EL SAUCE DE LA RINCONADA;;;;;;
-7.703.022;-1.212.675;TIENDAS TAMBO S.A.C;AV. 28 DE JULIO 448 LIMA-LIMA-MIRAFLORES;07:00 am - 10:30 pm;-1.212.675;-7.703.022;07:00 am - 10:30 pm;AV. 28 DE JULIO 448 LIMA-LIMA-MIRAFLORES;;;;;;
-770.473;-1.209.281;TIENDAS TAMBO S.A.C;CAL. LAS FLORES NRO 205 URB COUNTRY CLUB LIMA-LIMA-SAN ISIDRO;07:00 am - 10:30 pm;-1.209.281;-770.473;07:00 am - 10:30 pm;CAL. LAS FLORES NRO 205 URB COUNTRY CLUB LIMA-LIMA-SAN ISIDRO;;;;;;
-7.702.453;-120.966;TIENDAS TAMBO S.A.C;AV. ENRIQUE CANAVAL Y MOREYRA NRO. 139 LIMA - LIMA - SAN ISIDRO;07:00 am - 10:30 pm;-120.966;-7.702.453;07:00 am - 10:30 pm;AV. ENRIQUE CANAVAL Y MOREYRA NRO. 139 LIMA - LIMA - SAN ISIDRO;;;;;;
-770.473;-1.209.281;TIENDAS TAMBO S.A.C;CAL. LAS FLORES NRO 205 URB COUNTRY CLUB LIMA-LIMA-SAN ISIDRO;07:00 am - 10:30 pm;-1.209.281;-770.473;07:00 am - 10:30 pm;CAL. LAS FLORES NRO 205 URB COUNTRY CLUB LIMA-LIMA-SAN ISIDRO;;;;;;
-7.694.146;-1.210.389;TIENDAS TAMBO S.A.C;AV. LOS FRESNOS SECCIÓN 1-2, MZ. 14, LOTE 1, URBANIZACIÓN PORTADA DEL SOL DE LA MOLINA I;07:00 am - 10:30 pm;-1.210.389;-7.694.146;07:00 am - 10:30 pm;AV. LOS FRESNOS SECCIÓN 1-2, MZ. 14, LOTE 1, URBANIZACIÓN PORTADA DEL SOL DE LA MOLINA I;;;;;;
-7.705.494;-1.209.217;TIENDAS TAMBO S.A.C;AV. PERSHING NRO 479 INT. 2 URBANIZACIÓN COUNTRY CLUB LIMA-LIMA-MAGDALENA DEL MAR;07:00 am - 10:30 pm;-1.209.217;-7.705.494;07:00 am - 10:30 pm;AV. PERSHING NRO 479 INT. 2 URBANIZACIÓN COUNTRY CLUB LIMA-LIMA-MAGDALENA DEL MAR;;;;;;
-7.703.638;-1.208.023;TIENDAS TAMBO S.A.C;AV. GENERAL ARENALES NRO. 1518 LIMA - LIMA - LINCE;07:00 am - 10:30 pm;-1.208.023;-7.703.638;07:00 am - 10:30 pm;AV. GENERAL ARENALES NRO. 1518 LIMA - LIMA - LINCE;;;;;;
-7.703.475;-1.208.368;TIENDAS TAMBO S.A.C;AV AREQUIPA 1900 - LINCE;07:00 am - 10:30 pm;-1.208.368;-7.703.475;07:00 am - 10:30 pm;AV AREQUIPA 1900 - LINCE;;;;;;
-7.703.923;-1.204.849;TIENDAS TAMBO S.A.C;AV. NICOLAS DE PIEROLA NRO. 495 LIMA-LIMA-LIMA;07:00 am - 10:30 pm;-1.204.849;-7.703.923;07:00 am - 10:30 pm;AV. NICOLAS DE PIEROLA NRO. 495 LIMA-LIMA-LIMA;;;;;;
-7.703.511;-1.207.881;TIENDAS TAMBO S.A.C;AV. AREQUIPA 1421 - TDA 102;07:00 am - 10:30 pm;-1.207.881;-7.703.511;07:00 am - 10:30 pm;AV. AREQUIPA 1421 - TDA 102;;;;;;
-7.694.593;-1.206.237;TIENDAS TAMBO S.A.C;AV.LOS CONSTRUCTORES NRO.REF URB.STA PATRICIA III ETAPA(AV CONSTRUCTORES 1181-A) LIMA-LIMA-LA MOLINA;07:00 am - 10:30 pm;-1.206.237;-7.694.593;07:00 am - 10:30 pm;AV.LOS CONSTRUCTORES NRO.REF URB.STA PATRICIA III ETAPA(AV CONSTRUCTORES 1181-A) LIMA-LIMA-LA MOLINA;;;;;;
-7.702.788;-1.203.172;TIENDAS TAMBO S.A.C;AV SAMUEL ALCAZAR 202 - 204 RIMAC;07:00 am - 10:30 pm;-1.203.172;-7.702.788;07:00 am - 10:30 pm;AV SAMUEL ALCAZAR 202 - 204 RIMAC;;;;;;
-7.702.453;-120.966;TIENDAS TAMBO S.A.C;AV. ENRIQUE CANAVAL Y MOREYRA NRO. 139 LIMA - LIMA - SAN ISIDRO;07:00 am - 10:30 pm;-120.966;-7.702.453;07:00 am - 10:30 pm;AV. ENRIQUE CANAVAL Y MOREYRA NRO. 139 LIMA - LIMA - SAN ISIDRO;;;;;;
-7.698.759;-1.195.931;TIENDAS TAMBO S.A.C;PROGRAMA CIUDAD MARISCAL CÁCERES MZ A LTE 35 SECTOR 1 PRIMERA ETAPA LIMA-LIMA-SAN JUAN DE LURIGANCHO;07:00 am - 10:30 pm;-1.195.931;-7.698.759;07:00 am - 10:30 pm;PROGRAMA CIUDAD MARISCAL CÁCERES MZ A LTE 35 SECTOR 1 PRIMERA ETAPA LIMA-LIMA-SAN JUAN DE LURIGANCHO;;;;;;
-7.708.803;-1.207.653;TIENDAS TAMBO S.A.C;AV. PARQUE DE LAS LEYENDAS NRO. 252 URB. PANDO (REF LOCAL COMERCIAL 6) LIMA - LIMA - SAN MIGUEL;07:00 am - 10:30 pm;-1.207.653;-7.708.803;07:00 am - 10:30 pm;AV. PARQUE DE LAS LEYENDAS NRO. 252 URB. PANDO (REF LOCAL COMERCIAL 6) LIMA - LIMA - SAN MIGUEL;;;;;;
-7.703.446;-1.207.768;TIENDAS TAMBO S.A.C;JR. TEODORO CARDENAS NRO. 282 (PRIMER CARDENAS) LIMA-LIMA-LINCE;07:00 am - 10:30 pm;-1.207.768;-7.703.446;07:00 am - 10:30 pm;JR. TEODORO CARDENAS NRO. 282 (PRIMER CARDENAS) LIMA-LIMA-LINCE;;;;;;
-7.707.858;-1.206.358;TIENDAS TAMBO S.A.C;AV. UNIVERSITARIA NRO. 2033 URB. PANDO VIII ETAPA LIMA-LIMA-SAN MIGUEL;07:00 am - 10:30 pm;-1.206.358;-7.707.858;07:00 am - 10:30 pm;AV. UNIVERSITARIA NRO. 2033 URB. PANDO VIII ETAPA LIMA-LIMA-SAN MIGUEL;;;;;;
-7.700.039;-1.197.458;TIENDAS TAMBO S.A.C;MZA. C1 LOTE. 12 URB. LOS PINOS (PRIMER PISO) LIMA-LIMA-SAN JUAN DE LURIGANCHO;07:00 am - 10:30 pm;-1.197.458;-7.700.039;07:00 am - 10:30 pm;MZA. C1 LOTE. 12 URB. LOS PINOS (PRIMER PISO) LIMA-LIMA-SAN JUAN DE LURIGANCHO;;;;;;
-7.696.448;-1.207.643;OXXO BUCARÉ;AV. JAVIER PRADO ESTE N° 5299;07:00 am - 10:00 pm;-1.207.643;-7.696.448;07:00 am - 10:00 pm;AV. JAVIER PRADO ESTE N° 5299;;;;;;
-7.699.356;-1.196.773;TIENDAS TAMBO S.A.C;LOS ALAMOS MZ E LT 07 - SAN JUAN DE LURIGANCHO;07:00 am - 10:30 pm;-1.196.773;-7.699.356;07:00 am - 10:30 pm;LOS ALAMOS MZ E LT 07 - SAN JUAN DE LURIGANCHO;;;;;;
-769.303;-1.204.306;TIENDAS TAMBO S.A.C;AV. JAVIER PRADO NRO. 8703 URB. LOS PORTALES DE JAVIER PRADO (MZ J1 LOTE 50);07:00 am - 10:30 pm;-1.204.306;-769.303;07:00 am - 10:30 pm;AV. JAVIER PRADO NRO. 8703 URB. LOS PORTALES DE JAVIER PRADO (MZ J1 LOTE 50);;;;;;
-769.584;-1.206.751;TIENDAS TAMBO S.A.C;AV. CONSTRUCTORES NRO 107 (ESQUINA AV. LA MOLINA) LIMA-LIMA-LA MOLINA;07:00 am - 10:30 pm;-1.206.751;-769.584;07:00 am - 10:30 pm;AV. CONSTRUCTORES NRO 107 (ESQUINA AV. LA MOLINA) LIMA-LIMA-LA MOLINA;;;;;;
-7.705.874;-1.208.965;TIENDAS TAMBO S.A.C;AV. PERSHING N° 590, MAGDALENA DEL MAR;07:00 am - 10:30 pm;-1.208.965;-7.705.874;07:00 am - 10:30 pm;AV. PERSHING N° 590, MAGDALENA DEL MAR;;;;;;
-7.703.804;-1.205.953;TIENDAS TAMBO S.A.C;AV. INCA GARCILAZO DE LA VEGA NRO 1488 LIMA-LIMA-LIMA;07:00 am - 10:30 pm;-1.205.953;-7.703.804;07:00 am - 10:30 pm;AV. INCA GARCILAZO DE LA VEGA NRO 1488 LIMA-LIMA-LIMA;;;;;;
-7.700.392;-1.209.005;TIENDAS TAMBO S.A.C;JIRON MORELLI NRO 225 - INT 05 (PRIMER PISO) LIMA-LIMA-SAN BORJA;07:00 am - 10:30 pm;-1.209.005;-7.700.392;07:00 am - 10:30 pm;JIRON MORELLI NRO 225 - INT 05 (PRIMER PISO) LIMA-LIMA-SAN BORJA;;;;;;
-770.536;-1.209.251;OXXO PERSHING;AV.FAUSTINO SANCHEZ CARRIÓN N° 1077;07:00 am - 10:00 pm;-1.209.251;-770.536;07:00 am - 10:00 pm;AV.FAUSTINO SANCHEZ CARRIÓN N° 1077;;;;;;
-7.702.892;-1.212.146;TIENDAS TAMBO S.A.C;AV. JOSE A. LARCO N° 409,MIRAFLORES;07:00 am - 10:30 pm;-1.212.146;-7.702.892;07:00 am - 10:30 pm;AV. JOSE A. LARCO N° 409,MIRAFLORES;;;;;;
-7.700.392;-1.209.005;TIENDAS TAMBO S.A.C;JIRON MORELLI NRO 225 - INT 05 (PRIMER PISO) LIMA-LIMA-SAN BORJA;07:00 am - 10:30 pm;-1.209.005;-7.700.392;07:00 am - 10:30 pm;JIRON MORELLI NRO 225 - INT 05 (PRIMER PISO) LIMA-LIMA-SAN BORJA;;;;;;
-7.702.664;-1.209.194;TIENDAS TAMBO S.A.C;AV. RIVERA NAVARRETE 449 LIMA-LIMA-SAN ISIDRO;07:00 am - 10:30 pm;-1.209.194;-7.702.664;07:00 am - 10:30 pm;AV. RIVERA NAVARRETE 449 LIMA-LIMA-SAN ISIDRO;;;;;;
-7.706.692;-1.208.269;TIENDAS TAMBO S.A.C;AV. SUCRE NRO. 1183 LIMA-LIMA-PUEBLO LIBRE;07:00 am - 10:30 pm;-1.208.269;-7.706.692;07:00 am - 10:30 pm;AV. SUCRE NRO. 1183 LIMA-LIMA-PUEBLO LIBRE;;;;;;
-7.703.475;-1.208.368;TIENDAS TAMBO S.A.C;AV AREQUIPA 1900 - LINCE;07:00 am - 10:30 pm;-1.208.368;-7.703.475;07:00 am - 10:30 pm;AV AREQUIPA 1900 - LINCE;;;;;;
-7.709.239;-1.207.802;TIENDAS TAMBO S.A.C;AV. LA MARINA NRO. 2679(PRIMER NIVEL) LIMA-LIMA-SAN MIGUEL;07:00 am - 10:30 pm;-1.207.802;-7.709.239;07:00 am - 10:30 pm;AV. LA MARINA NRO. 2679(PRIMER NIVEL) LIMA-LIMA-SAN MIGUEL;;;;;;
-7.703.621;-1.206.814;TIENDAS TAMBO S.A.C;JR. SACO OLIVEROS NRO. 261 LIMA - LIMA - LIMA;07:00 am - 10:30 pm;-1.206.814;-7.703.621;07:00 am - 10:30 pm;JR. SACO OLIVEROS NRO. 261 LIMA - LIMA - LIMA;;;;;;
-7.702.756;-1.208.267;TIENDAS TAMBO S.A.C;AV. JOSE PARDO DE ZELA 850 ESQ. CON PSJ SN ROBERTO 212 LIMA-LIMA-LINCE;07:00 am - 10:30 pm;-1.208.267;-7.702.756;07:00 am - 10:30 pm;AV. JOSE PARDO DE ZELA 850 ESQ. CON PSJ SN ROBERTO 212 LIMA-LIMA-LINCE;;;;;;
-7.702.844;-1.212.314;TIENDAS TAMBO S.A.C;CALLE SHELL NRO 332 - LIMA-LIMA-MIRAFLORES;07:00 am - 10:30 pm;-1.212.314;-7.702.844;07:00 am - 10:30 pm;CALLE SHELL NRO 332 - LIMA-LIMA-MIRAFLORES;;;;;;
-7.702.813;-1.209.079;TIENDAS TAMBO S.A.C;CALLE LAS ORQUÍDEAS 2827 LIMA-LIMA-LINCE;07:00 am - 10:30 pm;-1.209.079;-7.702.813;07:00 am - 10:30 pm;CALLE LAS ORQUÍDEAS 2827 LIMA-LIMA-LINCE;;;;;;
-770.021;-1.208.819;TIENDAS TAMBO S.A.C;AV. JAVIER PRADO ESTE MZA. J-3 LOTE. 17 (ESQ CALLE LEONARDO DA VINCI) LIMA-LIMA-SAN BORJA;07:00 am - 10:30 pm;-1.208.819;-770.021;07:00 am - 10:30 pm;AV. JAVIER PRADO ESTE MZA. J-3 LOTE. 17 (ESQ CALLE LEONARDO DA VINCI) LIMA-LIMA-SAN BORJA;;;;;;
-7.693.836;-1.206.689;TIENDAS TAMBO S.A.C;AV. MELGAREJO NRO. 596 URB. SANTA PATRICIA 1 ETAPA (TIENDA 1 PRIMER PISO);07:00 am - 10:30 pm;-1.206.689;-7.693.836;07:00 am - 10:30 pm;AV. MELGAREJO NRO. 596 URB. SANTA PATRICIA 1 ETAPA (TIENDA 1 PRIMER PISO);;;;;;
-770.381;-1.206.678;TIENDAS TAMBO S.A.C;AV. REPUBLICA DE CHILE NRO. 280 LIMA-LIMA-JESUS MARIA;07:00 am - 10:30 pm;-1.206.678;-770.381;07:00 am - 10:30 pm;AV. REPUBLICA DE CHILE NRO. 280 LIMA-LIMA-JESUS MARIA;;;;;;
-7.704.657;-1.206.602;TIENDAS TAMBO S.A.C;AV. BRASIL NRO 680 (ESQ. RESTURACION) LIMA-LIMA-BREÑA;07:00 am - 10:30 pm;-1.206.602;-7.704.657;07:00 am - 10:30 pm;AV. BRASIL NRO 680 (ESQ. RESTURACION) LIMA-LIMA-BREÑA;;;;;;
-7.694.021;-1.210.632;MAXIFARMA;AV LOS FRESNOS 1497 MZ J LT 1 URB PORTADA DEL SOL 2DA ETAPA ;07:00 am - 10:00 pm;-1.210.632;-7.694.021;07:00 am - 10:00 pm;AV LOS FRESNOS 1497 MZ J LT 1 URB PORTADA DEL SOL 2DA ETAPA;;;;;;
-7.703.546;-1.208.613;TIENDAS TAMBO S.A.C;AV. ARENALES NRO 2140 LIMA-LIMA-LIMA;07:00 am - 10:30 pm;-1.208.613;-7.703.546;07:00 am - 10:30 pm;AV. ARENALES NRO 2140 LIMA-LIMA-LIMA;;;;;;
-7.703.335;-1.209.013;OXXO LAVANDA;AV. AREQUIPA N°2661;07:00 am - 10:00 pm;-1.209.013;-7.703.335;07:00 am - 10:00 pm;AV. AREQUIPA N°2661;;;;;;
-7.702.256;-121.362;TIENDAS TAMBO S.A.C;AV. GRAU 1620, ESQUINA CON JUAN FANNING - BARRANCO;07:00 am - 10:30 pm;-121.362;-7.702.256;07:00 am - 10:30 pm;AV. GRAU 1620, ESQUINA CON JUAN FANNING - BARRANCO;;;;;;
-7.709.239;-1.207.802;TIENDAS TAMBO S.A.C;AV. LA MARINA NRO. 2679(PRIMER NIVEL) LIMA-LIMA-SAN MIGUEL;07:00 am - 10:30 pm;-1.207.802;-7.709.239;07:00 am - 10:30 pm;AV. LA MARINA NRO. 2679(PRIMER NIVEL) LIMA-LIMA-SAN MIGUEL;;;;;;
-7.702.788;-1.203.172;TIENDAS TAMBO S.A.C;AV SAMUEL ALCAZAR 202 - 204 RIMAC;07:00 am - 10:30 pm;-1.203.172;-7.702.788;07:00 am - 10:30 pm;AV SAMUEL ALCAZAR 202 - 204 RIMAC;;;;;;
-7.706.579;-1.208.923;TIENDAS TAMBO S.A.C;AV BRASIL 3238- 3242;07:00 am - 10:30 pm;-1.208.923;-7.706.579;07:00 am - 10:30 pm;AV BRASIL 3238- 3242;;;;;;
-7.694.853;-1.210.351;BOOMARKET;AV. ALAMEDA DEL CORREGIDOR 1962 URB LA ENSENADA ;07:00 am - 10:00 pm;-1.210.351;-7.694.853;07:00 am - 10:00 pm;AV. ALAMEDA DEL CORREGIDOR 1962 URB LA ENSENADA;;;;;;
-77.032;-1.209.195;BODEGA AMORE;AV. JAVIER PRADO ESTE 215;07:00 am - 10:00 pm;-1.209.195;-77.032;07:00 am - 10:00 pm;AV. JAVIER PRADO ESTE 215;;;;;;
-7.703.557;-120.825;TIENDAS TAMBO S.A.C;JR. CANDAMO NRO. 109 INT. 2-35 (ALT. CDRA 17 AV.ARENALES) LIMA-LIMA-LINCE;07:00 am - 10:30 pm;-120.825;-7.703.557;07:00 am - 10:30 pm;JR. CANDAMO NRO. 109 INT. 2-35 (ALT. CDRA 17 AV.ARENALES) LIMA-LIMA-LINCE;;;;;;
-7.707.945;-1.207.824;TIENDAS TAMBO S.A.C;AV. LA MARINA MZA. A LOTE. 33 LIMA-LIMA-PUEBLO LIBRE;07:00 am - 10:30 pm;-1.207.824;-7.707.945;07:00 am - 10:30 pm;AV. LA MARINA MZA. A LOTE. 33 LIMA-LIMA-PUEBLO LIBRE;;;;;;
-7.702.609;-1.208.959;NEGOCIOS TAYBE S.A.C. - NETAYBE S.A.C.;CAL.FRANCISCO MASIAS NRO. 2620 URB. SAN EUGENIO;07:30 am - 10:00 pm;-1.208.959;-7.702.609;07:30 am - 10:00 pm;CAL.FRANCISCO MASIAS NRO. 2620 URB. SAN EUGENIO;;;;;;
-7.699.634;-120.876;MARX;AV. SAN LUIS 1907 INTERIOR 22;07:00 am - 10:00 pm;-120.876;-7.699.634;07:00 am - 10:00 pm;AV. SAN LUIS 1907 INTERIOR 22;;;;;;
-7.703.205;-12.093;BOTICA MERCEDES;AV PETIT THOUARS 3026;07:30 am - 10:00 pm;-12.093;-7.703.205;07:30 am - 10:00 pm;AV PETIT THOUARS 3026;;;;;;
-7.701.026;-1.199.639;TIENDAS TAMBO S.A.C;MZA W LOTE 23 URB. SAN HILARION LIMA-LIMA-SAN JUAN DE LURIGANCHO;07:00 am - 10:30 pm;-1.199.639;-7.701.026;07:00 am - 10:30 pm;MZA W LOTE 23 URB. SAN HILARION LIMA-LIMA-SAN JUAN DE LURIGANCHO;;;;;;
-7.702.219;-1.213.908;TIENDAS TAMBO S.A.C;AV. ALMIRANTE  MIGUEL GRAU  1210,BARRANCO  ;07:00 am - 10:30 pm;-1.213.908;-7.702.219;07:00 am - 10:30 pm;AV. ALMIRANTE  MIGUEL GRAU  1210,BARRANCO;;;;;;
-7.706.155;-1.208.416;TIENDAS TAMBO S.A.C;AV. BRASIL NRO. 2688 (1ER. PISO) LIMA-LIMA-PUEBLO LIBRE;07:00 am - 10:30 pm;-1.208.416;-7.706.155;07:00 am - 10:30 pm;AV. BRASIL NRO. 2688 (1ER. PISO) LIMA-LIMA-PUEBLO LIBRE;;;;;;
-7.703.857;-1.209.299;KIOSKO MARIA ROSA;"AV JAVIER PRADO OESTE CUADRA 6(AL FRENTE DEL PARADERO PALMERAS ""KIOSKO"" )";07:30 am - 10:00 pm;-1.209.299;-7.703.857;07:30 am - 10:00 pm;"AV JAVIER PRADO OESTE CUADRA 6(AL FRENTE DEL PARADERO PALMERAS ""KIOSKO"" )";;;;;;
-7.705.401;-1.207.481;TIENDAS TAMBO S.A.C;AV.SIMÓN BOLIVAR 126 FUNDO DESAMPARADOS LIMA-LIMA-PUEBLO LIBRE;07:00 am - 10:30 pm;-1.207.481;-7.705.401;07:00 am - 10:30 pm;AV.SIMÓN BOLIVAR 126 FUNDO DESAMPARADOS LIMA-LIMA-PUEBLO LIBRE;;;;;;
-7.703.243;-1.209.037;TIENDAS TAMBO S.A.C;AV. PETIT THOUARS 2699 - LINCE;07:00 am - 10:30 pm;-1.209.037;-7.703.243;07:00 am - 10:30 pm;AV. PETIT THOUARS 2699 - LINCE;;;;;;
-770.397;-1.205.413;TIENDAS TAMBO S.A.C;AV. URUGUAY 401, LIMA 15001;07:00 am - 10:30 pm;-1.205.413;-770.397;07:00 am - 10:30 pm;AV. URUGUAY 401, LIMA 15001;;;;;;
-7.697.345;-1.208.364;TIENDAS TAMBO S.A.C;AV. JAVIER PRADO CDRA. 45 LIMA-LIMA-SANTIAGO DE SURCO;07:00 am - 10:30 pm;-1.208.364;-7.697.345;07:00 am - 10:30 pm;AV. JAVIER PRADO CDRA. 45 LIMA-LIMA-SANTIAGO DE SURCO;;;;;;
-7.705.213;-1.207.539;TIENDAS TAMBO S.A.C;AV. GENERAL GARZON 1535-(1545-1547-1549) ;07:00 am - 10:30 pm;-1.207.539;-7.705.213;07:00 am - 10:30 pm;AV. GENERAL GARZON 1535-(1545-1547-1549);;;;;;
-7.688.896;-1.208.653;MARIA AHIDE CHANTA CHIQUILLANQUI;MZA. 6 LOTE 22 TDA. 2 MUSA II ETAPA;07:00 am - 10:00 pm;-1.208.653;-7.688.896;07:00 am - 10:00 pm;MZA. 6 LOTE 22 TDA. 2 MUSA II ETAPA;;;;;;
-7.700.039;-1.197.458;TIENDAS TAMBO S.A.C;MZA. C1 LOTE. 12 URB. LOS PINOS (PRIMER PISO) LIMA-LIMA-SAN JUAN DE LURIGANCHO;07:00 am - 10:30 pm;-1.197.458;-7.700.039;07:00 am - 10:30 pm;MZA. C1 LOTE. 12 URB. LOS PINOS (PRIMER PISO) LIMA-LIMA-SAN JUAN DE LURIGANCHO;;;;;;
-7.692.436;-1.208.521;TIENDAS TAMBO S.A.C;AV. LA MOLINA ( EX AV. UNIVERSIDAD) DPTO SEC -1A  MZ J LT 21 D / 3090-3096 URBANIZACIÓN RINCONADA DEL LAGO - 1 ETAPA;07:00 am - 10:30 pm;-1.208.521;-7.692.436;07:00 am - 10:30 pm;AV. LA MOLINA ( EX AV. UNIVERSIDAD) DPTO SEC -1A  MZ J LT 21 D / 3090-3096 URBANIZACIÓN RINCONADA DEL LAGO - 1 ETAPA;;;;;;
-7.707.945;-1.207.824;TIENDAS TAMBO S.A.C;AV. LA MARINA MZA. A LOTE. 33 LIMA-LIMA-PUEBLO LIBRE;07:00 am - 10:30 pm;-1.207.824;-7.707.945;07:00 am - 10:30 pm;AV. LA MARINA MZA. A LOTE. 33 LIMA-LIMA-PUEBLO LIBRE;;;;;;
-7.703.783;-1.209.465;TIENDAS TAMBO S.A.C;AV. JORGE BASADRE N°536 ;07:00 am - 10:30 pm;-1.209.465;-7.703.783;07:00 am - 10:30 pm;AV. JORGE BASADRE N°536;;;;;;
-7.701.759;-1.213.886;TIENDAS TAMBO S.A.C;AVENIDA REPUBLICA DE PANAMA 326 LOCAL COMERCIAL 02 URB. FUNDO TEJADA BARRANCO;07:00 am - 10:30 pm;-1.213.886;-7.701.759;07:00 am - 10:30 pm;AVENIDA REPUBLICA DE PANAMA 326 LOCAL COMERCIAL 02 URB. FUNDO TEJADA BARRANCO;;;;;;
-7.701.535;-1.202.566;TIENDAS TAMBO S.A.C;AV. LIMA MZA. FIV4 LOTE. 96 URB. CAJA DE AGUA (AV LIMA 298 296 CAJA AGUA SJL);07:00 am - 10:30 pm;-1.202.566;-7.701.535;07:00 am - 10:30 pm;AV. LIMA MZA. FIV4 LOTE. 96 URB. CAJA DE AGUA (AV LIMA 298 296 CAJA AGUA SJL);;;;;;
-7.703.151;-1.212.257;TIENDAS TAMBO S.A.C;AV. DIAGONAL N° 530 -MIRAFLORES;07:00 am - 10:30 pm;-1.212.257;-7.703.151;07:00 am - 10:30 pm;AV. DIAGONAL N° 530 -MIRAFLORES;;;;;;
-7.695.063;-1.209.936;OXXO CORREGIDOR;AV. EL CORREGIDOR N° 1586;07:00 am - 10:00 pm;-1.209.936;-7.695.063;07:00 am - 10:00 pm;AV. EL CORREGIDOR N° 1586;;;;;;
-7.702.948;-1.212.219;TIENDAS TAMBO S.A.C;AV ERNESTO DIEZ CANSECO 164 -168 MIRAFLORES;07:00 am - 10:30 pm;-1.212.219;-7.702.948;07:00 am - 10:30 pm;AV ERNESTO DIEZ CANSECO 164 -168 MIRAFLORES;;;;;;
-7.703.309;-1.208.686;NOVAFARMA;AV. PETIT THOUARS 2300;07:30 am - 10:00 pm;-1.208.686;-7.703.309;07:30 am - 10:00 pm;AV. PETIT THOUARS 2300;;;;;;
-7.694.211;-1.206.147;FARMA 3B;AV HUAROCHIRI 363 URB COVIMA;07:00 am - 10:00 pm;-1.206.147;-7.694.211;07:00 am - 10:00 pm;AV HUAROCHIRI 363 URB COVIMA;;;;;;
-769.508;-1.206.328;IZYFARMA;AV LOS INGENIEROS 303 URB SANTA RAQUEL ;07:00 am - 10:00 pm;-1.206.328;-769.508;07:00 am - 10:00 pm;AV LOS INGENIEROS 303 URB SANTA RAQUEL;;;;;;
-770.177;-1.214.204;TIENDAS TAMBO S.A.C;AV. BOLOGNESI NRO. 938 LIMA-LIMA-BARRANCO;07:00 am - 10:30 pm;-1.214.204;-770.177;07:00 am - 10:30 pm;AV. BOLOGNESI NRO. 938 LIMA-LIMA-BARRANCO;;;;;;
-7.700.315;-1.201.769;TIENDAS TAMBO S.A.C;MZA. D-1 LOTE. 01 APV. POBLADORES LIMA - LIMA - SAN JUAN DE LURIGANCHO;07:00 am - 10:30 pm;-1.201.769;-7.700.315;07:00 am - 10:30 pm;MZA. D-1 LOTE. 01 APV. POBLADORES LIMA - LIMA - SAN JUAN DE LURIGANCHO;;;;;;
-770.381;-1.206.678;TIENDAS TAMBO S.A.C;AV. REPUBLICA DE CHILE NRO. 280 LIMA-LIMA-JESUS MARIA;07:00 am - 10:30 pm;-1.206.678;-770.381;07:00 am - 10:30 pm;AV. REPUBLICA DE CHILE NRO. 280 LIMA-LIMA-JESUS MARIA;;;;;;
-7.702.919;-1.208.932;OXXO MIRTOS;AV. PROLONG IQUITOS 2605;07:00 am - 10:00 pm;-1.208.932;-7.702.919;07:00 am - 10:00 pm;AV. PROLONG IQUITOS 2605;;;;;;
-7.703.557;-120.825;TIENDAS TAMBO S.A.C;JR. CANDAMO NRO. 109 INT. 2-35 (ALT. CDRA 17 AV.ARENALES) LIMA-LIMA-LINCE;07:00 am - 10:30 pm;-120.825;-7.703.557;07:00 am - 10:30 pm;JR. CANDAMO NRO. 109 INT. 2-35 (ALT. CDRA 17 AV.ARENALES) LIMA-LIMA-LINCE;;;;;;
-7.694.217;-1.210.293;SUPER FARMA;AV LOS FRESNOS 1232 LAS VIÑAS ;07:00 am - 10:00 pm;-1.210.293;-7.694.217;07:00 am - 10:00 pm;AV LOS FRESNOS 1232 LAS VIÑAS;;;;;;
-7.697.345;-1.208.364;TIENDAS TAMBO S.A.C;AV. JAVIER PRADO CDRA. 45 LIMA-LIMA-SANTIAGO DE SURCO;07:00 am - 10:30 pm;-1.208.364;-7.697.345;07:00 am - 10:30 pm;AV. JAVIER PRADO CDRA. 45 LIMA-LIMA-SANTIAGO DE SURCO;;;;;;
-7.687.711;-1.208.453;SAMUEL ELIAS CONDOR MONTERA;CARRETERA CIENEGUILLA MZ A LT 03 AAHH PAUL PAULET ;07:00 am - 10:00 pm;-1.208.453;-7.687.711;07:00 am - 10:00 pm;CARRETERA CIENEGUILLA MZ A LT 03 AAHH PAUL PAULET;;;;;;
-7.708.745;-1.207.923;OXXO BRIGIDA;AV BRIGADA SILVA DE OCHOA N° 348;07:00 am - 10:00 pm;-1.207.923;-7.708.745;07:00 am - 10:00 pm;AV BRIGADA SILVA DE OCHOA N° 348;;;;;;
-7.694.472;-1.210.171;MINIMARKET MAZZ MAZZ;ALAMEDA DE LOS CÓNDORES 604, LA MOLINA 15012;07:00 am - 10:00 pm;-1.210.171;-7.694.472;07:00 am - 10:00 pm;ALAMEDA DE LOS CÓNDORES 604, LA MOLINA 15012;;;;;;
-7.707.755;-1.206.948;TIENDAS TAMBO S.A.C;AV. UNIVERSITARIA NRO. 1833 LIMA - LIMA - PUEBLO LIBRE (MAGDALENA VIEJA);07:00 am - 10:30 pm;-1.206.948;-7.707.755;07:00 am - 10:30 pm;AV. UNIVERSITARIA NRO. 1833 LIMA - LIMA - PUEBLO LIBRE (MAGDALENA VIEJA);;;;;;
-7.701.006;-1.202.597;TIENDAS TAMBO S.A.C;URBANIZACIÓN CAJA DE AGUA PARCELA 4 MZ J LTE 1 (AV. PROCERES 190) LIMA-LIMA-SAN JUAN DE LURIGANCHO;07:00 am - 10:30 pm;-1.202.597;-7.701.006;07:00 am - 10:30 pm;URBANIZACIÓN CAJA DE AGUA PARCELA 4 MZ J LTE 1 (AV. PROCERES 190) LIMA-LIMA-SAN JUAN DE LURIGANCHO;;;;;;
-7.702.634;-1.202.434;JESSICA VILMA QUISPE TITO;AV EL SOL 591A;07:00 am - 10:00 pm;-1.202.434;-7.702.634;07:00 am - 10:00 pm;AV EL SOL 591A;;;;;;
-7.703.488;-12.08;OXXO AREQUIPA;AV. AREQUIPA 1501, LINCE;07:00 am - 10:00 pm;-12.08;-7.703.488;07:00 am - 10:00 pm;AV. AREQUIPA 1501, LINCE;;;;;;
-7.696.448;-1.207.643;OXXO BUCARÉ;AV. JAVIER PRADO ESTE N° 5299;07:00 am - 10:00 pm;-1.207.643;-7.696.448;07:00 am - 10:00 pm;AV. JAVIER PRADO ESTE N° 5299;;;;;;
-7.703.082;-1.212.144;TIENDAS TAMBO S.A.C;AV. MARISCAL OSCAR R. BENAVIDES (EX DIAGONAL) 384, 386 Y 388, DISTRITO DE MIRAFLORES;07:00 am - 10:30 pm;-1.212.144;-7.703.082;07:00 am - 10:30 pm;AV. MARISCAL OSCAR R. BENAVIDES (EX DIAGONAL) 384, 386 Y 388, DISTRITO DE MIRAFLORES;;;;;;
-7.707.051;-1.209.774;TIENDAS TAMBO S.A.C;AV. EJERCITO NRO. 282 LIMA - LIMA - MAGDALENA DEL MAR;07:00 am - 10:30 pm;-1.209.774;-7.707.051;07:00 am - 10:30 pm;AV. EJERCITO NRO. 282 LIMA - LIMA - MAGDALENA DEL MAR;;;;;;
-7.688.844;-1.208.611;R&R CORPORATION SAC;PSJE LAS LANTANAS 400 URB MUSA;07:00 am - 10:00 pm;-1.208.611;-7.688.844;07:00 am - 10:00 pm;PSJE LAS LANTANAS 400 URB MUSA;;;;;;
-7.691.292;-1.208.569;OXXO EL SOL;AV. LA MOLINA N° 3614;07:00 am - 10:00 pm;-1.208.569;-7.691.292;07:00 am - 10:00 pm;AV. LA MOLINA N° 3614;;;;;;
-7.703.082;-1.212.144;TIENDAS TAMBO S.A.C;AV. MARISCAL OSCAR R. BENAVIDES (EX DIAGONAL) 384, 386 Y 388, DISTRITO DE MIRAFLORES;07:00 am - 10:30 pm;-1.212.144;-7.703.082;07:00 am - 10:30 pm;AV. MARISCAL OSCAR R. BENAVIDES (EX DIAGONAL) 384, 386 Y 388, DISTRITO DE MIRAFLORES;;;;;;
-770.241;-1.209.561;OXXO PASEO;AV. PASEO DE LA REPÚBLICA 3199;07:00 am - 10:00 pm;-1.209.561;-770.241;07:00 am - 10:00 pm;AV. PASEO DE LA REPÚBLICA 3199;;;;;;
-7.702.699;-1.209.068;OXXO CLEMENTE;AV. RIVERA NAVARRETE N° 2801;07:00 am - 10:00 pm;-1.209.068;-7.702.699;07:00 am - 10:00 pm;AV. RIVERA NAVARRETE N° 2801;;;;;;
-7.694.295;-1.206.843;CASA DE APUESTAS-CABINA INTERNET;AV FLORA TRISTAN SUR 616 URB SANTA PATRICIA II ETAPA ;07:00 am - 10:00 pm;-1.206.843;-7.694.295;07:00 am - 10:00 pm;AV FLORA TRISTAN SUR 616 URB SANTA PATRICIA II ETAPA;;;;;;
-7.700.547;-1.198.537;TIENDAS TAMBO S.A.C;AV. EL SOL NRO. 452 URB. SAN CARLOS LIMA - LIMA - SAN JUAN DE LURIGANCHO;07:00 am - 10:30 pm;-1.198.537;-7.700.547;07:00 am - 10:30 pm;AV. EL SOL NRO. 452 URB. SAN CARLOS LIMA - LIMA - SAN JUAN DE LURIGANCHO;;;;;;
-7.701.077;-1.198.918;TIENDAS TAMBO S.A.C;MZA. A LOTE. 1 URB. COOPERATIVA DE VIVIENDA L LIMA-LIMA-SAN JUAN DE LURIGANCHO;07:00 am - 10:30 pm;-1.198.918;-7.701.077;07:00 am - 10:30 pm;MZA. A LOTE. 1 URB. COOPERATIVA DE VIVIENDA L LIMA-LIMA-SAN JUAN DE LURIGANCHO;;;;;;
-76.955;-1.207.339;TIENDAS TAMBO S.A.C;AV. JUAN PASCAL PRINGLES NRO 410 INT 134 LIMA-LIMA-LA MOLINA (REF. CC LA FONTANA);07:00 am - 10:30 pm;-1.207.339;-76.955;07:00 am - 10:30 pm;AV. JUAN PASCAL PRINGLES NRO 410 INT 134 LIMA-LIMA-LA MOLINA (REF. CC LA FONTANA);;;;;;
-7.707.756;-1.206.343;LA LUZ VERDE;JR STA NICERATA 334 URB PANDO ETAPA 3 / FRENTE AL PARQUE;07:30 am - 10:00 pm;-1.206.343;-7.707.756;07:30 am - 10:00 pm;JR STA NICERATA 334 URB PANDO ETAPA 3 / FRENTE AL PARQUE;;;;;;
-76.986;-1.195.962;TIENDAS TAMBO S.A.C;MZ. K2 LT. 1 CDRA 1 LD. DERECHO LUGAR. PROL. MARISCAL CACERES / SECTOR 1 - 3 ERA Y 4TA ETAPA ;07:00 am - 10:30 pm;-1.195.962;-76.986;07:00 am - 10:30 pm;MZ. K2 LT. 1 CDRA 1 LD. DERECHO LUGAR. PROL. MARISCAL CACERES / SECTOR 1 - 3 ERA Y 4TA ETAPA;;;;;;
-7.702.841;-1.202.641;BODEGA VANESSITA;AV LORENZO ENCALADA N° 188 -URB CIUDAD Y CAMPO/ENTRE ENCALADA Y BARREDA AGUILAR;07:30 am - 10:00 pm;-1.202.641;-7.702.841;07:30 am - 10:00 pm;AV LORENZO ENCALADA N° 188 -URB CIUDAD Y CAMPO/ENTRE ENCALADA Y BARREDA AGUILAR;;;;;;
-7.702.219;-121.423;TIENDAS TAMBO S.A.C;AV. PEREZ ROCA N°103 INT.947 (AV. MIGUEL GRAU 947) LIMA-LIMA-BARRANCO;07:00 am - 10:30 pm;-121.423;-7.702.219;07:00 am - 10:30 pm;AV. PEREZ ROCA N°103 INT.947 (AV. MIGUEL GRAU 947) LIMA-LIMA-BARRANCO;;;;;;
-7.692.803;-1.208.278;TIENDAS TAMBO S.A.C;AV. LA MOLINA 2832 A15 MZ D LOTE 02 EL SAUCE DE LA RINCONADA;07:00 am - 10:30 pm;-1.208.278;-7.692.803;07:00 am - 10:30 pm;AV. LA MOLINA 2832 A15 MZ D LOTE 02 EL SAUCE DE LA RINCONADA;;;;;;
-7.694.258;-1.206.044;TIENDAS TAMBO S.A.C;AV. HUAROCHIRI NRO. 405 URB. COVIMA LIMA - LIMA - LA MOLINA;07:00 am - 10:30 pm;-1.206.044;-7.694.258;07:00 am - 10:30 pm;AV. HUAROCHIRI NRO. 405 URB. COVIMA LIMA - LIMA - LA MOLINA;;;;;;
-7.694.658;-1.206.256;LA ESQUINA DEL MOVIMIENTO;AV. DE LOS CONSTRUCTORES NRO. 1101 URB. SANTA PATRICIA;07:30 am - 10:00 pm;-1.206.256;-7.694.658;07:30 am - 10:00 pm;AV. DE LOS CONSTRUCTORES NRO. 1101 URB. SANTA PATRICIA;;;;;;
-770.104;-1.201.797;TIENDAS TAMBO S.A.C;MZA. 45 LOTE. 463 COO. LAS FLORES LIMA - LIMA - SAN JUAN DE LURIGANCHO;07:00 am - 10:30 pm;-1.201.797;-770.104;07:00 am - 10:30 pm;MZA. 45 LOTE. 463 COO. LAS FLORES LIMA - LIMA - SAN JUAN DE LURIGANCHO;;;;;;
-770.356;-1.200.729;BOTICA VIDA SALUD;MZ D LT 4 COOPERATIVA MIRAFLORES;07:00 am - 10:00 pm;-1.200.729;-770.356;07:00 am - 10:00 pm;MZ D LT 4 COOPERATIVA MIRAFLORES;;;;;;
-7.702.854;-1.202.579;D'PEDRIN; AV. BARREDA Y AGUILAR 103 – URB. CIUDAD Y CAMPO;07:00 am - 10:00 pm;-1.202.579;-7.702.854;07:00 am - 10:00 pm;AV. BARREDA Y AGUILAR 103 – URB. CIUDAD Y CAMPO;;;;;;
-7.694.306;-1.210.134;TIENDAS TAMBO S.A.C;AV. A MZA. B LOTE. 15 URB. VALLE DE LA MOLINA LIMA - LIMA - LA MOLINA;07:00 am - 10:30 pm;-1.210.134;-7.694.306;07:00 am - 10:30 pm;AV. A MZA. B LOTE. 15 URB. VALLE DE LA MOLINA LIMA - LIMA - LA MOLINA;;;;;;
-7.704.657;-1.206.602;TIENDAS TAMBO S.A.C;AV. BRASIL NRO 680 (ESQ. RESTURACION) LIMA-LIMA-BREÑA;07:00 am - 10:30 pm;-1.206.602;-7.704.657;07:00 am - 10:30 pm;AV. BRASIL NRO 680 (ESQ. RESTURACION) LIMA-LIMA-BREÑA;;;;;;
-7.697.308;-1.208.533;TIENDAS TAMBO S.A.C;AV. MANUEL OLGUIN NRO. 205 URB. EX PARCELACION SEMIRUSTICA LOS GRANADOS LIMA-LIMA-SANTIAGO DE SURCO;07:00 am - 10:30 pm;-1.208.533;-7.697.308;07:00 am - 10:30 pm;AV. MANUEL OLGUIN NRO. 205 URB. EX PARCELACION SEMIRUSTICA LOS GRANADOS LIMA-LIMA-SANTIAGO DE SURCO;;;;;;
-7.693.632;-1.211.325;LULE'S BAZAR;AV. LOS FRESNOS 2033, LA MOLINA 15024;07:00 am - 10:00 pm;-1.211.325;-7.693.632;07:00 am - 10:00 pm;AV. LOS FRESNOS 2033, LA MOLINA 15024;;;;;;
-7.702.934;-1.206.167;TIENDAS TAMBO S.A.C;AV. MANCO CAPAC NRO. 299 LIMA-LIMA-LA VICTORIA;07:00 am - 10:30 pm;-1.206.167;-7.702.934;07:00 am - 10:30 pm;AV. MANCO CAPAC NRO. 299 LIMA-LIMA-LA VICTORIA;;;;;;
-7.701.136;-1.200.716;TIENDAS TAMBO S.A.C;AV. LAS FLORES DE PRIMAVERA MZA. 98 LOTE. 18 (PRIMER PISO) LIMA-LIMA-SAN JUAN DE LURIGANCHO;07:00 am - 10:30 pm;-1.200.716;-7.701.136;07:00 am - 10:30 pm;AV. LAS FLORES DE PRIMAVERA MZA. 98 LOTE. 18 (PRIMER PISO) LIMA-LIMA-SAN JUAN DE LURIGANCHO;;;;;;
-7.703.515;-1.207.656;LAS 4 HORMIGAS;JR.  ENRIQUE VILLAR  236;07:00 am - 10:00 pm;-1.207.656;-7.703.515;07:00 am - 10:00 pm;JR.  ENRIQUE VILLAR  236;;;;;;
-7.689.208;-1.208.585;MINIMARKET LA TERCERA;AV. LA MOLINA 4760 ;07:00 am - 10:00 pm;-1.208.585;-7.689.208;07:00 am - 10:00 pm;AV. LA MOLINA 4760;;;;;;
-7.706.477;-1.208.879;OXXO LARCO;AV BRASIL NRO 3199;07:00 am - 10:00 pm;-1.208.879;-7.706.477;07:00 am - 10:00 pm;AV BRASIL NRO 3199;;;;;;
-7.703.687;-1.207.461;MULTISERVICIOS MARIA;AV ALEJANDRO TIRADO 109 (CRUCE CUBA CON ARENALES);07:30 am - 10:00 pm;-1.207.461;-7.703.687;07:30 am - 10:00 pm;AV ALEJANDRO TIRADO 109 (CRUCE CUBA CON ARENALES);;;;;;
-7.693.649;-1.206.024;MINIMARKET DON NORA;MZ E LOTE 01 URB SAN FRANCISCO REF: AV. BANCO CDRA. 03;07:30 am - 10:00 pm;-1.206.024;-7.693.649;07:30 am - 10:00 pm;MZ E LOTE 01 URB SAN FRANCISCO REF: AV. BANCO CDRA. 03;;;;;;
-7.694.217;-1.210.293;SUPER FARMA;AV LOS FRESNOS 1232 LAS VIÑAS ;07:00 am - 10:00 pm;-1.210.293;-7.694.217;07:00 am - 10:00 pm;AV LOS FRESNOS 1232 LAS VIÑAS;;;;;;
-7.693.733;-1.204.444;QUINDE MARKET;AV SEPARADORA INDUSTRIAL 4216;07:00 am - 10:00 pm;-1.204.444;-7.693.733;07:00 am - 10:00 pm;AV SEPARADORA INDUSTRIAL 4216;;;;;;
-7.696.409;-1.207.674;CASA FOTOGRAFICA DANY;AV JAVIER PRADO 5266 TD 36 CC LA FONTANA PARADERO LOS FRUTALES;07:30 am - 10:00 pm;-1.207.674;-7.696.409;07:30 am - 10:00 pm;AV JAVIER PRADO 5266 TD 36 CC LA FONTANA PARADERO LOS FRUTALES;;;;;;
-7.703.365;-1.202.682;FERREMAT'S H&L;AV CRNL SAMUEL DEL ALCAZAR 866 URB LA FLORIDA;07:30 am - 10:00 pm;-1.202.682;-7.703.365;07:30 am - 10:00 pm;AV CRNL SAMUEL DEL ALCAZAR 866 URB LA FLORIDA;;;;;;
-769.369;-1.211.295;BOTICA MAS SALUD;AV LOS FRESNOS 2008 URB PORTADA DEL SOL;07:30 am - 10:00 pm;-1.211.295;-769.369;07:30 am - 10:00 pm;AV LOS FRESNOS 2008 URB PORTADA DEL SOL;;;;;;
-7.703.849;-1.206.995;CASA DE CAMBIO ANDREA;CALL. LARRABURRE Y UNANUE 277;07:30 am - 10:00 pm;-1.206.995;-7.703.849;07:30 am - 10:00 pm;CALL. LARRABURRE Y UNANUE 277;;;;;;
-7.701.077;-1.198.918;TIENDAS TAMBO S.A.C;MZA. A LOTE. 1 URB. COOPERATIVA DE VIVIENDA L LIMA-LIMA-SAN JUAN DE LURIGANCHO;07:00 am - 10:30 pm;-1.198.918;-7.701.077;07:00 am - 10:30 pm;MZA. A LOTE. 1 URB. COOPERATIVA DE VIVIENDA L LIMA-LIMA-SAN JUAN DE LURIGANCHO;;;;;;
-7.694.163;-1.210.352;FARMACIA DUNAMIS;AV. LOS FRESNOS 1283 ;07:00 am - 10:00 pm;-1.210.352;-7.694.163;07:00 am - 10:00 pm;AV. LOS FRESNOS 1283;;;;;;
-7.694.701;-1.206.867;CABINA E INTERNET PATZ;CAL.AREQUIPA NRO. 120 URB. STA PATRICIA 2DA ET (ALT CDRA 65 PROL J PRADO);07:30 am - 10:00 pm;-1.206.867;-7.694.701;07:30 am - 10:00 pm;CAL.AREQUIPA NRO. 120 URB. STA PATRICIA 2DA ET (ALT CDRA 65 PROL J PRADO);;;;;;
-7.702.844;-1.212.314;TIENDAS TAMBO S.A.C;CALLE SHELL NRO 332 - LIMA-LIMA-MIRAFLORES;07:00 am - 10:30 pm;-1.212.314;-7.702.844;07:00 am - 10:30 pm;CALLE SHELL NRO 332 - LIMA-LIMA-MIRAFLORES;;;;;;
-7.692.547;-1.203.342;INTERNET MILAGROS;CALLE LOS MOROS MZ A LT 21 // REF.PROLONGACION JAVIER PRADO CON CALLE LOS MOROS;07:00 am - 10:00 pm;-1.203.342;-7.692.547;07:00 am - 10:00 pm;CALLE LOS MOROS MZ A LT 21 // REF.PROLONGACION JAVIER PRADO CON CALLE LOS MOROS;;;;;;
-7.702.446;-1.209.101;PEREZ PONCE, JOSEFINA IRMA;CUADRA 7 DE AV JAVIER PRADO (PARDERO LAS BEGONIAS CORREDOR ROJO);07:30 am - 10:00 pm;-1.209.101;-7.702.446;07:30 am - 10:00 pm;CUADRA 7 DE AV JAVIER PRADO (PARDERO LAS BEGONIAS CORREDOR ROJO);;;;;;
-770.352;-1.208.082;GRACIELA CONDOR PONCE;AV. AREQUIPA 1600;07:00 am - 10:00 pm;-1.208.082;-770.352;07:00 am - 10:00 pm;AV. AREQUIPA 1600;;;;;;
-7.701.121;-1.201.204;TIENDAS TAMBO S.A.C;CASA TIPO A - UNA PLANTA MZA G LOTE 2 (AV FLORES DE PRIMAVERA 1014) LIMA-LIMA-SAN JUAN DE LURIGANCHO;07:00 am - 10:30 pm;-1.201.204;-7.701.121;07:00 am - 10:30 pm;CASA TIPO A - UNA PLANTA MZA G LOTE 2 (AV FLORES DE PRIMAVERA 1014) LIMA-LIMA-SAN JUAN DE LURIGANCHO;;;;;;
-7.693.614;-1.211.384;LIBRERÍA FRESNOS;PROLONGACIÓN LOS FRESNOS 105;07:00 am - 10:00 pm;-1.211.384;-7.693.614;07:00 am - 10:00 pm;PROLONGACIÓN LOS FRESNOS 105;;;;;;
-7.694.153;-1.206.136;EL TRIBUNAL;AV HUAROCHIRI 1155 I ETAPA MAYORAZGO ;07:00 am - 10:00 pm;-1.206.136;-7.694.153;07:00 am - 10:00 pm;AV HUAROCHIRI 1155 I ETAPA MAYORAZGO;;;;;;
-7.703.753;-1.207.192;ALCIRA CABALLERO VALDIVIEZO;AV ARENALES 744;07:00 am - 10:00 pm;-1.207.192;-7.703.753;07:00 am - 10:00 pm;AV ARENALES 744;;;;;;
-7.694.153;-1.206.136;EL TRIBUNAL;AV HUAROCHIRI 1155 I ETAPA MAYORAZGO ;07:00 am - 10:00 pm;-1.206.136;-7.694.153;07:00 am - 10:00 pm;AV HUAROCHIRI 1155 I ETAPA MAYORAZGO;;;;;;
-770.315;-1.209.325;BODEGA EL ABUELO;CALLE VIRREY TOLEDO 0390 ;07:00 am - 10:00 pm;-1.209.325;-770.315;07:00 am - 10:00 pm;CALLE VIRREY TOLEDO 0390;;;;;;
-7.700.927;-1.197.516;TIENDAS TAMBO S.A.C;AV. EL PERIODISTA MZA. A-1 LOTE. 20 URB. CANTO NUEVO LIMA - LIMA - SAN JUAN DE LURIGANCHO;07:00 am - 10:30 pm;-1.197.516;-7.700.927;07:00 am - 10:30 pm;AV. EL PERIODISTA MZA. A-1 LOTE. 20 URB. CANTO NUEVO LIMA - LIMA - SAN JUAN DE LURIGANCHO;;;;;;
-7.702.782;-1.208.158;INVERSIONES KHAO EIRL;AV. PASEO DE LA REPUBLICA 1798;07:00 am - 10:00 pm;-1.208.158;-7.702.782;07:00 am - 10:00 pm;AV. PASEO DE LA REPUBLICA 1798;;;;;;
-7.692.987;-1.203.661;RECARGAS Y PAGOS;CALLE LAS DALIAS MZA A LTE 4 - REF: ALT. BCP;07:30 am - 10:00 pm;-1.203.661;-7.692.987;07:30 am - 10:00 pm;CALLE LAS DALIAS MZA A LTE 4 - REF: ALT. BCP;;;;;;
-7.703.146;-1.201.342;BOTICA FARMA BURGOS;AV. FLOR DE AMANCAES, LIMA 15096;07:00 am - 10:00 pm;-1.201.342;-7.703.146;07:00 am - 10:00 pm;AV. FLOR DE AMANCAES, LIMA 15096;;;;;;
-7.692.781;-1.204.256;SANAFARMA;PROLONG JAVIER PRADO MZ K1 LT 41 URB LOS PORTALES DE JAVIER PRADO 2DA ETAPA ;07:00 am - 10:00 pm;-1.204.256;-7.692.781;07:00 am - 10:00 pm;PROLONG JAVIER PRADO MZ K1 LT 41 URB LOS PORTALES DE JAVIER PRADO 2DA ETAPA;;;;;;
-7.703.775;-1.206.676;OXXO CORPANCHO;AV. REPUBLICA DE CHILE 299, CERCADO DE LIMA;07:00 am - 10:00 pm;-1.206.676;-7.703.775;07:00 am - 10:00 pm;AV. REPUBLICA DE CHILE 299, CERCADO DE LIMA;;;;;;
-7.703.446;-1.207.768;TIENDAS TAMBO S.A.C;JR. TEODORO CARDENAS NRO. 282 (PRIMER CARDENAS) LIMA-LIMA-LINCE;07:00 am - 10:30 pm;-1.207.768;-7.703.446;07:00 am - 10:30 pm;JR. TEODORO CARDENAS NRO. 282 (PRIMER CARDENAS) LIMA-LIMA-LINCE;;;;;;
-77.037;-1.207.255;LIDA MARIZHA HERMOSILLA CHAVEZ;JR. PABLO BERMUDEZ 175 (ALT. CDRA 8 AV. ARENALES) URB STA. BEATRIZ ;07:00 am - 10:00 pm;-1.207.255;-77.037;07:00 am - 10:00 pm;JR. PABLO BERMUDEZ 175 (ALT. CDRA 8 AV. ARENALES) URB STA. BEATRIZ;;;;;;
-7.688.492;-1.208.558;AGAPITO PALOMINO TELLO;COOP. EL PARAISO DE LA MOLINA MZA. A LOTE 9;07:00 am - 10:00 pm;-1.208.558;-7.688.492;07:00 am - 10:00 pm;COOP. EL PARAISO DE LA MOLINA MZA. A LOTE 9;;;;;;
-7.700.495;-1.196.935;TIENDAS TAMBO S.A.C;MZA. A INT. REFE LOTE. 4 URB. CANTO GRANDE (UNIDAD 6 PRIMER PISO) LIMA-LIMA-SAN JUAN DE LURIGANCHO;07:00 am - 10:30 pm;-1.196.935;-7.700.495;07:00 am - 10:30 pm;MZA. A INT. REFE LOTE. 4 URB. CANTO GRANDE (UNIDAD 6 PRIMER PISO) LIMA-LIMA-SAN JUAN DE LURIGANCHO;;;;;;
-7.699.676;-1.208.535;LIBRERIA Y MAS SERVICIOS;AV SAN LUIS 1849 INT 101/CRUCE JAVIER PRADO CON SAN LUIS;07:30 am - 10:00 pm;-1.208.535;-7.699.676;07:30 am - 10:00 pm;AV SAN LUIS 1849 INT 101/CRUCE JAVIER PRADO CON SAN LUIS;;;;;;
-7.703.704;-1.209.597;TIENDAS TAMBO S.A.C;AV. BELAUNDE, VÍCTOR ANDRÉS N° 0208 - SAN ISIDRO;07:00 am - 10:30 pm;-1.209.597;-7.703.704;07:00 am - 10:30 pm;AV. BELAUNDE, VÍCTOR ANDRÉS N° 0208 - SAN ISIDRO;;;;;;
-7.694.943;-120.636;MINIMARKET MARIE;JR FRANCISCO GARCIA CALDERO 195;07:00 am - 10:00 pm;-120.636;-7.694.943;07:00 am - 10:00 pm;JR FRANCISCO GARCIA CALDERO 195;;;;;;
-7.702.939;-1.202.502;PERLITH IRLANDA VARGAS JIMENEZ;CALLE ARMANDO FILOMENO 116 URB CIUDAD Y CAMPO ;07:00 am - 10:00 pm;-1.202.502;-7.702.939;07:00 am - 10:00 pm;CALLE ARMANDO FILOMENO 116 URB CIUDAD Y CAMPO;;;;;;
-7.705.329;-1.207.408;OXXO CORACEROS;AV. BRASIL N° 1506;07:00 am - 10:00 pm;-1.207.408;-7.705.329;07:00 am - 10:00 pm;AV. BRASIL N° 1506;;;;;;
-7.694.051;-1.205.521;INTERNET MENDOZA;CALLE VIGO 188 TDA 2 URB MAYORAZGO ETAPA 3;07:30 am - 10:00 pm;-1.205.521;-7.694.051;07:30 am - 10:00 pm;CALLE VIGO 188 TDA 2 URB MAYORAZGO ETAPA 3;;;;;;
-7.701.243;-1.198.059;FARMA TODO;AV CANTO GRANDE 2901 ESQ AV. CANTO BELLO 102 MZ. M SUB LT. 12.B URB CANTO BELLO;07:30 am - 10:00 pm;-1.198.059;-7.701.243;07:30 am - 10:00 pm;AV CANTO GRANDE 2901 ESQ AV. CANTO BELLO 102 MZ. M SUB LT. 12.B URB CANTO BELLO;;;;;;
-7.701.214;-1.202.528;ANNIEFARMA;AV LIMA153 URB CAJA DE AGUA;07:00 am - 10:00 pm;-1.202.528;-7.701.214;07:00 am - 10:00 pm;AV LIMA153 URB CAJA DE AGUA;;;;;;
-7.700.547;-1.198.537;TIENDAS TAMBO S.A.C;AV. EL SOL NRO. 452 URB. SAN CARLOS LIMA - LIMA - SAN JUAN DE LURIGANCHO;07:00 am - 10:30 pm;-1.198.537;-7.700.547;07:00 am - 10:30 pm;AV. EL SOL NRO. 452 URB. SAN CARLOS LIMA - LIMA - SAN JUAN DE LURIGANCHO;;;;;;
-7.706.875;-1.209.282;LA OFICINA ONLINE EIRL;AV BRASIL 3676 URB OYAGUE ;07:00 am - 10:00 pm;-1.209.282;-7.706.875;07:00 am - 10:00 pm;AV BRASIL 3676 URB OYAGUE;;;;;;
-7.703.994;-1.205.611;CABINAS DE INTERNET;AV BOLIVIA 343;07:00 am - 10:00 pm;-1.205.611;-7.703.994;07:00 am - 10:00 pm;AV BOLIVIA 343;;;;;;
-7.703.486;-1.208.469;MARKET LLAMO;JR ALCEDO BERNARDO 172 / FRENTE POLICLINICO RISSO;07:30 am - 10:00 pm;-1.208.469;-7.703.486;07:30 am - 10:00 pm;JR ALCEDO BERNARDO 172 / FRENTE POLICLINICO RISSO;;;;;;
-7.702.976;-1.202.095;VIAJA BARATO;AV CARLOS VALDERRAMA 119 URB EL BOSQUE RIMAC;07:00 am - 10:00 pm;-1.202.095;-7.702.976;07:00 am - 10:00 pm;AV CARLOS VALDERRAMA 119 URB EL BOSQUE RIMAC;;;;;;
-7.703.621;-1.208.011;ROCIO JAQUELIN PAZ GALVEZ;AV. ARENALES 1519;07:00 am - 10:00 pm;-1.208.011;-7.703.621;07:00 am - 10:00 pm;AV. ARENALES 1519;;;;;;
-7.703.146;-1.201.342;BOTICA FARMA BURGOS;AV. FLOR DE AMANCAES, LIMA 15096;07:00 am - 10:00 pm;-1.201.342;-7.703.146;07:00 am - 10:00 pm;AV. FLOR DE AMANCAES, LIMA 15096;;;;;;
-7.704.778;-1.206.749;OXXO NAZCA;AV. BRASIL N° 840;07:00 am - 10:00 pm;-1.206.749;-7.704.778;07:00 am - 10:00 pm;AV. BRASIL N° 840;;;;;;
-7.704.392;-1.206.519;NENES MARKET EIRL;AV 28 DE JULIO 232;07:00 am - 10:00 pm;-1.206.519;-7.704.392;07:00 am - 10:00 pm;AV 28 DE JULIO 232;;;;;;
-7.702.883;-1.207.015;MARKET  SJSK;AV ISABEL  LA CATÓLICA 343;07:00 am - 10:00 pm;-1.207.015;-7.702.883;07:00 am - 10:00 pm;AV ISABEL  LA CATÓLICA 343;;;;;;
-7.694.978;-1.210.086;DESTINOS MAGICOS;AV ALAMEDA DEL CORREGIDOR 1737 ;07:00 am - 10:00 pm;-1.210.086;-7.694.978;07:00 am - 10:00 pm;AV ALAMEDA DEL CORREGIDOR 1737;;;;;;
-7.706.871;-1.209.296;LA OFICINA ONLINE;AV BRASIL 3676;07:00 am - 10:00 pm;-1.209.296;-7.706.871;07:00 am - 10:00 pm;AV BRASIL 3676;;;;;;
-7.696.797;-1.193.554;BODEGA JESUS;MZ X LT 5 A URB ENRIQUE MONTENEGRO/ ALT PARADERO LA CAPILLA;07:30 am - 10:00 pm;-1.193.554;-7.696.797;07:30 am - 10:00 pm;MZ X LT 5 A URB ENRIQUE MONTENEGRO/ ALT PARADERO LA CAPILLA;;;;;;
-7.706.579;-1.208.923;TIENDAS TAMBO S.A.C;AV BRASIL 3238- 3242;07:00 am - 10:30 pm;-1.208.923;-7.706.579;07:00 am - 10:30 pm;AV BRASIL 3238- 3242;;;;;;
-7.704.153;-1.205.865;LIBRERÍA SHALOM;AV ALFONSO UGARTE 1429 ;07:00 am - 10:00 pm;-1.205.865;-7.704.153;07:00 am - 10:00 pm;AV ALFONSO UGARTE 1429;;;;;;
-7.705.633;-1.207.839;BOTICA DE TODO ;AV. BRASIL NRO. 1941// REF.PARADERO LA 18;07:30 am - 10:00 pm;-1.207.839;-7.705.633;07:30 am - 10:00 pm;AV. BRASIL NRO. 1941// REF.PARADERO LA 18;;;;;;
-7.702.803;-1.205.233;MARCUS EMPRESA;JR AYACUCHO 708 INT 108 REF. FRENTE A LA FISCALIA ;07:30 am - 10:00 pm;-1.205.233;-7.702.803;07:30 am - 10:00 pm;JR AYACUCHO 708 INT 108 REF. FRENTE A LA FISCALIA;;;;;;
-7.702.877;-1.207.777;W.LLAMO.CEL SRL;PROLONGACION IQUITOS 1523;07:00 am - 10:00 pm;-1.207.777;-7.702.877;07:00 am - 10:00 pm;PROLONGACION IQUITOS 1523;;;;;;
-7.700.577;-119.674;TIENDAS TAMBO S.A.C;AV. SAN MARTIN MZA. K1 LOTE. 20 URB. CANTO GRANDE LIMA - LIMA - SAN JUAN DE LURIGANCHO;07:00 am - 10:30 pm;-119.674;-7.700.577;07:00 am - 10:30 pm;AV. SAN MARTIN MZA. K1 LOTE. 20 URB. CANTO GRANDE LIMA - LIMA - SAN JUAN DE LURIGANCHO;;;;;;
-7.700.639;-1.197.167;TIENDAS TAMBO S.A.C;AV CANTO GRANDE N° 3520 MZA. A LT. 17 URB. SAN RAFAEL DE CANTO GRANDE ;07:00 am - 10:30 pm;-1.197.167;-7.700.639;07:00 am - 10:30 pm;AV CANTO GRANDE N° 3520 MZA. A LT. 17 URB. SAN RAFAEL DE CANTO GRANDE;;;;;;
-7.702.185;-121.423;MINIMARKET CARLOS;AV ALMIRANTE GRAU 926;07:00 am - 10:00 pm;-121.423;-7.702.185;07:00 am - 10:00 pm;AV ALMIRANTE GRAU 926;;;;;;
-7.703.971;-1.205.411;TIENDAS TAMBO S.A.C;AV. URUGUAY 401, LIMA 15001;07:00 am - 10:30 pm;-1.205.411;-7.703.971;07:00 am - 10:30 pm;AV. URUGUAY 401, LIMA 15001;;;;;;
-7.702.256;-121.362;TIENDAS TAMBO S.A.C;AV. GRAU 1620, ESQUINA CON JUAN FANNING - BARRANCO;07:00 am - 10:30 pm;-121.362;-7.702.256;07:00 am - 10:30 pm;AV. GRAU 1620, ESQUINA CON JUAN FANNING - BARRANCO;;;;;;
-7.703.377;-1.208.204;PLIMBES EIRL;AV PETIT THOUARS 1780;07:00 am - 10:00 pm;-1.208.204;-7.703.377;07:00 am - 10:00 pm;AV PETIT THOUARS 1780;;;;;;
-7.695.845;-1.206.949;DISTRIBUCIONES PACIFICO;CALLE LOS HIGOS 151 AMPLIACION RESIDENCIAL MONTERRICO ;07:00 am - 10:00 pm;-1.206.949;-7.695.845;07:00 am - 10:00 pm;CALLE LOS HIGOS 151 AMPLIACION RESIDENCIAL MONTERRICO;;;;;;
-7.703.883;-1.206.712;NVF EIRL;AV. REPUBLICA DE CHILE 324 - INTERIOR 101;07:30 am - 10:00 pm;-1.206.712;-7.703.883;07:30 am - 10:00 pm;AV. REPUBLICA DE CHILE 324 - INTERIOR 101;;;;;;
-7.701.108;-1.201.744;INVERSIONES J&B -CASA DE APUESTAS;JR. LAS CRUCINELAS 698 A MZA. 50 LOTE 2 - 1ER PISO COOP LAS FLORES ;07:00 am - 10:00 pm;-1.201.744;-7.701.108;07:00 am - 10:00 pm;JR. LAS CRUCINELAS 698 A MZA. 50 LOTE 2 - 1ER PISO COOP LAS FLORES;;;;;;
-7.704.036;-1.205.835;MELECIO;JR. CHOTA 1410;07:00 am - 10:00 pm;-1.205.835;-7.704.036;07:00 am - 10:00 pm;JR. CHOTA 1410;;;;;;
-769.284;-1.204.317;FARMACIA GNOMOFARMA;AV JAVIER PRADO ESTE 8858;07:00 am - 10:00 pm;-1.204.317;-769.284;07:00 am - 10:00 pm;AV JAVIER PRADO ESTE 8858;;;;;;
-7.701.026;-1.199.639;TIENDAS TAMBO S.A.C;MZA W LOTE 23 URB. SAN HILARION LIMA-LIMA-SAN JUAN DE LURIGANCHO;07:00 am - 10:30 pm;-1.199.639;-7.701.026;07:00 am - 10:30 pm;MZA W LOTE 23 URB. SAN HILARION LIMA-LIMA-SAN JUAN DE LURIGANCHO;;;;;;
-7.697.932;-1.194.179;CAB INT COMIC NET;JR FINAL MZNA S1 11;07:00 am - 10:00 pm;-1.194.179;-7.697.932;07:00 am - 10:00 pm;JR FINAL MZNA S1 11;;;;;;
-7.703.521;-1.208.668;A&M GOLD METAL TRADING SAC;AV. ARENALES 2246;07:00 am - 10:00 pm;-1.208.668;-7.703.521;07:00 am - 10:00 pm;AV. ARENALES 2246;;;;;;
-7.697.348;-1.193.752;BODEGA DOÑA VICKY;JR MAR DE BERING  MZ M1 LT 16 AAHH ENRIQUE MONTENEGRO SECTOR 5 / REFERENCIA: FRENTE AL RESTAURANTE RICONCITO NORTEÑO;07:00 am - 10:00 pm;-1.193.752;-7.697.348;07:00 am - 10:00 pm;JR MAR DE BERING  MZ M1 LT 16 AAHH ENRIQUE MONTENEGRO SECTOR 5 / REFERENCIA: FRENTE AL RESTAURANTE RICONCITO NORTEÑO;;;;;;
-7.703.254;-12.126;ELECTRONICA PORTA S.R.L.;JR. DANTE 414, LIMA 15074;07:30 am - 10:00 pm;-12.126;-7.703.254;07:30 am - 10:00 pm;JR. DANTE 414, LIMA 15074;;;;;;
-7.707.051;-1.209.774;TIENDAS TAMBO S.A.C;AV. EJERCITO NRO. 282 LIMA - LIMA - MAGDALENA DEL MAR;07:00 am - 10:30 pm;-1.209.774;-7.707.051;07:00 am - 10:30 pm;AV. EJERCITO NRO. 282 LIMA - LIMA - MAGDALENA DEL MAR;;;;;;
-770.191;-1.214.253;LIBRERIA MARIA;JR CORA 199;07:00 am - 10:00 pm;-1.214.253;-770.191;07:00 am - 10:00 pm;JR CORA 199;;;;;;
-7.703.587;-120.786;BODEGA LA HERMANITA;CAL MANUEL DEL PINO 160;07:30 am - 10:00 pm;-120.786;-7.703.587;07:30 am - 10:00 pm;CAL MANUEL DEL PINO 160;;;;;;
-770.355;-1.202.349;DIMAGEN SRL;URB LA FLORIDA CALLE 20 1093;07:30 am - 10:00 pm;-1.202.349;-770.355;07:30 am - 10:00 pm;URB LA FLORIDA CALLE 20 1093;;;;;;
-7.700.904;-1.202.606;BODEGA ANGEL;JR. LAS CHULPA 511 URB ZARATE;07:30 am - 10:00 pm;-1.202.606;-7.700.904;07:30 am - 10:00 pm;JR. LAS CHULPA 511 URB ZARATE;;;;;;
-7.702.756;-1.208.267;TIENDAS TAMBO S.A.C;AV. JOSE PARDO DE ZELA 850 ESQ. CON PSJ SN ROBERTO 212 LIMA-LIMA-LINCE;07:00 am - 10:30 pm;-1.208.267;-7.702.756;07:00 am - 10:30 pm;AV. JOSE PARDO DE ZELA 850 ESQ. CON PSJ SN ROBERTO 212 LIMA-LIMA-LINCE;;;;;;
-7.703.841;-1.205.585;TIENDAS TAMBO S.A.C;AV. INCA GARCILAZO DE LA VEGA 1298;07:00 am - 10:30 pm;-1.205.585;-7.703.841;07:00 am - 10:30 pm;AV. INCA GARCILAZO DE LA VEGA 1298;;;;;;
-7.694.169;-1.205.477;MULTISERVICIOS BONUSNET;AV SEPARADORA INDUSTRIAL 3012 URB MAYORAZGO CHICO;07:00 am - 10:00 pm;-1.205.477;-7.694.169;07:00 am - 10:00 pm;AV SEPARADORA INDUSTRIAL 3012 URB MAYORAZGO CHICO;;;;;;
-7.700.427;-1.201.016;ASTETE ESPINOZA LUZ;JR. LAS SENSITIVAS NRO. 200 URB. LOS JARDINES DE SAN JUAN (CDRA 15 DE PROCERES D;07:30 am - 10:00 pm;-1.201.016;-7.700.427;07:30 am - 10:00 pm;JR. LAS SENSITIVAS NRO. 200 URB. LOS JARDINES DE SAN JUAN (CDRA 15 DE PROCERES D;;;;;;
-7.701.149;-1.201.205;BOTICA FARMA BRACY;AV LAS FLORES DE PRIMAVERA 1003 COO VIV LAS FLORES REF: PARADERO 7 DE LAS FLORES;07:30 am - 10:00 pm;-1.201.205;-7.701.149;07:30 am - 10:00 pm;AV LAS FLORES DE PRIMAVERA 1003 COO VIV LAS FLORES REF: PARADERO 7 DE LAS FLORES;;;;;;
-7.698.959;-1.196.408;LIBRERÍA BAZAR BODEGA PATYLU;CALLE LOS ECONOMISTAS MZ F4 LTE 36 ALTURA PARADERO 15 DE VICE;07:30 am - 10:00 pm;-1.196.408;-7.698.959;07:30 am - 10:00 pm;CALLE LOS ECONOMISTAS MZ F4 LTE 36 ALTURA PARADERO 15 DE VICE;;;;;;
-7.704.719;-1.206.483;INTERNET STEFANO;JR. RESTAURACION ESQ. AV. PABLO FERNANDINI 656 INT. 226A;07:30 am - 10:00 pm;-1.206.483;-7.704.719;07:30 am - 10:00 pm;JR. RESTAURACION ESQ. AV. PABLO FERNANDINI 656 INT. 226A;;;;;;
-7.702.898;-1.206.299;BOTICA DERFARMA;AV 28 DE JULIO 1421 / FRENTE AL PQUE MANCO CAPAC;07:30 am - 10:00 pm;-1.206.299;-7.702.898;07:30 am - 10:00 pm;AV 28 DE JULIO 1421 / FRENTE AL PQUE MANCO CAPAC;;;;;;
-7.700.413;-119.798;BODEGA MILAGRITOS;AV. EL BOSQUE MZ. C LOTE 21;07:30 am - 10:00 pm;-119.798;-7.700.413;07:30 am - 10:00 pm;AV. EL BOSQUE MZ. C LOTE 21;;;;;;
-7.698.108;-1.194.153;MULTISERVICIOS OFIADMAR;CALLE 66 MZ K15 LT 20 SUB 4 MARISCAL CACERES ;07:00 am - 10:00 pm;-1.194.153;-7.698.108;07:00 am - 10:00 pm;CALLE 66 MZ K15 LT 20 SUB 4 MARISCAL CACERES;;;;;;
-7.699.375;-1.196.797;FARMA ELIPSE;AV LOS PROCERES DE LA INDEPENDENCIA 3727 MZA. E LOTE 4 ;07:00 am - 10:00 pm;-1.196.797;-7.699.375;07:00 am - 10:00 pm;AV LOS PROCERES DE LA INDEPENDENCIA 3727 MZA. E LOTE 4;;;;;;
-7.696.895;-1.193.273;COMERCIAL KIARA;AV INCA PACHACUTEC TIENDA 3 CC LA FORTUNA;07:30 am - 10:00 pm;-1.193.273;-7.696.895;07:30 am - 10:00 pm;AV INCA PACHACUTEC TIENDA 3 CC LA FORTUNA;;;;;;
-7.688.896;-1.208.653;MARIA AHIDE CHANTA CHIQUILLANQUI;MZA. 6 LOTE 22 TDA. 2 MUSA II ETAPA;07:00 am - 10:00 pm;-1.208.653;-7.688.896;07:00 am - 10:00 pm;MZA. 6 LOTE 22 TDA. 2 MUSA II ETAPA;;;;;;
-7.703.252;-1.202.786;EL PUNTO PRECISO;CALLE PSJ VALLEJO MZ C LT 4 SAN GABRIEL LT 4;07:00 am - 10:00 pm;-1.202.786;-7.703.252;07:00 am - 10:00 pm;CALLE PSJ VALLEJO MZ C LT 4 SAN GABRIEL LT 4;;;;;;
-7.703.571;-1.206.414;GABRIEL LOPEZ SULLCARAYME;AV 28 DE JULIO 952  SANTA BEATRIZ ;07:00 am - 10:00 pm;-1.206.414;-7.703.571;07:00 am - 10:00 pm;AV 28 DE JULIO 952  SANTA BEATRIZ;;;;;;
-7.692.436;-1.208.521;TIENDAS TAMBO S.A.C;AV. LA MOLINA ( EX AV. UNIVERSIDAD) DPTO SEC -1A  MZ J LT 21 D / 3090-3096 URBANIZACIÓN RINCONADA DEL LAGO - 1 ETAPA;07:00 am - 10:30 pm;-1.208.521;-7.692.436;07:00 am - 10:30 pm;AV. LA MOLINA ( EX AV. UNIVERSIDAD) DPTO SEC -1A  MZ J LT 21 D / 3090-3096 URBANIZACIÓN RINCONADA DEL LAGO - 1 ETAPA;;;;;;
;;;;;;;;;;;;;;
;;;;;;;;;;;;;;
;;;;;;;;;;;;;;
;;;;;;;;;;;;;;
;;;;;;;;;;;;;;
;;;;;;;;;;;;;;
;;;;;;;;;;;;;;
;;;;;;;;;;;;;;
;;;;;;;;;;;;;;
;;;;;;;;;;;;;;
;;;;;;;;;;;;;;
;;;;;;;;;;;;;;
;;;;;;;;;;;;;;
;;;;;;;;;;;;;;
